KUIPER-00165            
1 65778U 25217S   26015.16670139  .00012419  00000+0  15587-2 0  9991
2 65778  51.8997 272.3362 0001335 171.5717 121.5947 14.82457226  5331
KUIPER-00166            
1 65779U 25217T   26015.16670139  .00040299  00000+0  18916-2 0  9998
2 65779  51.8748 263.2040 0002483 139.3148  82.2657 15.19248041  5653
KUIPER-00167            
1 65780U 25217U   26015.02807835  .00001969  00000+0  28696-3 0  9998
2 65780  51.8975 282.8772 0000753  64.7617 295.3423 14.79969613 16892
KUIPER-00168            
1 65781U 25217V   26015.16670139  .00017003  00000+0  13966-2 0  9998
2 65781  51.8921 265.7818 0000140 263.6777 208.2048 14.99261090  4486
KUIPER-00169            
1 65782U 25217W   26015.16670139  .00041435  00000+0  49026-2 0  9991
2 65782  51.9010 269.9337 0003901 123.1872 104.0911 14.84197131  5293
KUIPER-00170            
1 65783U 25217X   26015.16670139  .00008721  00000+0  11643-2 0  9997
2 65783  51.8987 274.7778 0001149  55.8193 279.4241 14.80193556  5249
KUIPER-00171            
1 65784U 25217Y   26015.16670139  .01877667  00000+0  85232-2 0  9997
2 65784  51.8504 245.5441 0010095 148.1065 346.8361 15.80291637  3882
KUIPER-00172            
1 65785U 25217Z   26015.08588294  .00008389  00000+0  39185-3 0  9992
2 65785  51.8745 266.0670 0005277 147.0315 213.0994 15.20601323 17135
KUIPER-00173            
1 65786U 25217AA  26015.16670139  .00040208  00000+0  47517-2 0  9995
2 65786  51.9012 269.9411 0002457 238.0126 166.2849 14.84263877  5285
KUIPER-00174            
1 65787U 25217AB  26015.16670139  .00017898  00000+0  14801-2 0  9995
2 65787  51.8901 265.9318 0002231 322.9462 307.7030 14.98964976  5603
KUIPER-00176            
1 65788U 25217AC  26014.92949788  .00001328  00000+0  20334-3 0  9998
2 65788  51.9007 280.8311 0001046 109.7176 250.3899 14.79905092 16912
KUIPER-00101            
1 65947U 25228A   26015.00904753  .00001804  00000+0  26553-3 0  9998
2 65947  51.8976 237.9637 0001160  89.6769 270.4326 14.79936675 15286
KUIPER-00113            
1 65948U 25228B   26014.98065840 -.00001720  00000+0 -19654-3 0  9993
2 65948  51.8982 233.1081 0000574 123.1498 236.9519 14.79963424 15346
KUIPER-00117            
1 65949U 25228C   26015.01171063  .00001508  00000+0  22672-3 0  9990
2 65949  51.8968 235.4713 0000954 114.8322 245.2739 14.79942088 15310
KUIPER-00121            
1 65950U 25228D   26015.16670139 -.00017722  00000+0 -24952-2 0  9995
2 65950  51.8977 229.6704 0000948  29.4916 282.0724 14.76533913  4737
KUIPER-00122            
1 65951U 25228E   26014.83762943  .00002372  00000+0  34007-3 0  9990
2 65951  51.8978 241.2133 0001522 119.2717 240.8397 14.79925746 15227
KUIPER-00123            
1 65952U 25228F   26015.00645050  .00001660  00000+0  24691-3 0  9997
2 65952  51.8974 240.4893 0000945 118.9006 241.2052 14.79905437 15243
KUIPER-00124            
1 65953U 25228G   26015.01442757 -.00000171  00000+0  65598-5 0  9998
2 65953  51.8992 232.9442 0000832 120.4431 239.6613 14.79951075 15350
KUIPER-00125            
1 65954U 25228H   26015.16670139 -.01645891  00000+0 -98673-1 0  9994
2 65954  51.8865 219.9587 0004942 154.7656 272.0608 15.14091331  5916
KUIPER-00126            
1 65955U 25228J   26014.84025447 -.00002495  00000+0 -29878-3 0  9994
2 65955  51.8984 238.7317 0000880 101.2061 258.9001 14.79876976 15257
KUIPER-00127            
1 65956U 25228K   26014.82128104  .00002638  00000+0  24182-3 0  9997
2 65956  51.8942 233.2215 0005552 170.9511 189.1560 14.98165978 15331
KUIPER-00128            
1 65957U 25228L   26015.16670139 -.00057616  00000+0 -75341-2 0  9996
2 65957  51.8986 229.7977 0000765  57.2766  19.1495 14.80262504  5315
KUIPER-00129            
1 65958U 25228M   26015.16670139 -.00057012  00000+0 -61441-2 0  9993
2 65958  51.8971 224.9839 0003055 112.2996   6.4100 14.88204564  5453
KUIPER-00130            
1 65959U 25228N   26015.16670139 -.00055246  00000+0 -67475-2 0  9994
2 65959  51.9007 227.3561 0003228 146.1259 235.9852 14.83075170  5754
KUIPER-00134            
1 65960U 25228P   26014.83564655  .00004760  00000+0  14167-3 0  9998
2 65960  51.8762 220.8691 0007605 132.0241 228.1394 15.36619488 15507
KUIPER-00135            
1 65961U 25228Q   26015.16670139 -.00050122  00000+0 -60621-2 0  9991
2 65961  51.9000 227.4405 0000162   0.7225 191.3987 14.83436220  4974
KUIPER-00136            
1 65962U 25228R   26015.16670139 -.00066665  00000+0 -75075-2 0  9990
2 65962  51.8991 225.0858 0008406 153.2391 126.3925 14.86475939  5161
KUIPER-00137            
1 65963U 25228S   26015.16670139 -.00024761  00000+0 -21532-2 0  9991
2 65963  51.8949 223.0567 0004392 160.2550 189.1854 14.96279885  5706
KUIPER-00138            
1 65964U 25228T   26015.16670139 -.00029500  00000+0 -19574-2 0  9991
2 65964  51.9046 221.5364 0008265 159.8149 213.2022 15.06571417  5484
KUIPER-00140            
1 65965U 25228U   26015.16670139 -.00027988  00000+0 -24146-2 0  9991
2 65965  51.8926 223.2593 0005004 142.9004 357.5566 14.96651777  5453
KUIPER-00141            
1 65966U 25228V   26015.16670139 -.00029187  00000+0 -16576-2 0  9993
2 65966  51.8871 220.3379 0002579 208.2217 324.3367 15.12239253  4673
KUIPER-00146            
1 65967U 25228W   26015.16670139 -.00619638  00000+0 -46085-1 0  9997
2 65967  51.9037 221.5718 0003107 180.1884  94.1144 15.04873303  4648
KUIPER-00149            
1 65968U 25228X   26015.16670139 -.00469977  00000+0 -20616-1 0  9999
2 65968  51.8826 219.4294 0004360 145.6735 176.5221 15.23590223  5372
KUIPER-00154            
1 65969U 25228Y   26015.16670139 -.00881091  00000+0 -29203-1 0  9996
2 65969  51.8782 219.1415 0005760 126.3805 333.5317 15.33393448  5344
KUIPER-00157            
1 65970U 25228Z   26015.16670139 -.01920375  00000+0 -83561-1 0  9995
2 65970  51.8805 219.6670 0005152 150.3221  29.0279 15.25001565  5671
KUIPER-00144            
1 67133U 25301A   26015.02457620  .00010847  00000+0  31286-3 0  9993
2 67133  51.8707 324.5762 0006321 180.3954 179.7028 15.36214226  5484
KUIPER-00164            
1 67134U 25301B   26014.88215997  .00019051  00000+0  53237-3 0  9992
2 67134  51.8724 325.1266 0003068 161.9339 198.1757 15.36712194  5646
KUIPER-00175            
1 67135U 25301C   26015.06728760  .00024200  00000+0  66115-3 0  9992
2 67135  51.8745 324.1175 0002314 112.9615 247.1616 15.37262973  5560
KUIPER-00179            
1 67136U 25301D   26015.07452787  .00021637  00000+0  59964-3 0  9992
2 67136  51.8749 324.1673 0003897 137.3914 222.7375 15.36883593  5677
KUIPER-00181            
1 67137U 25301E   26015.11129073  .00018948  00000+0  55989-3 0  9991
2 67137  51.8661 324.3878 0010527 209.1639 150.8760 15.34921685  5650
KUIPER-00183            
1 67138U 25301F   26015.11587044  .00013672  00000+0  40801-3 0  9994
2 67138  51.8640 324.4130 0011443 210.6271 149.4047 15.34862779  5668
KUIPER-00184            
1 67139U 25301G   26015.10926885  .00019768  00000+0  57907-3 0  9991
2 67139  51.8664 324.3739 0009097 208.9490 151.0992 15.35177735  5776
KUIPER-00186            
1 67140U 25301H   26015.09639703  .00021266  00000+0  60628-3 0  9991
2 67140  51.8701 324.3028 0007573 195.6805 164.3947 15.35993595  5496
KUIPER-00187            
1 67141U 25301J   26015.16670139 -.00011021  00000+0 -36089-3 0  9992
2 67141  51.8744 323.9319 0005535 189.2056 205.3860 15.30111666  5299
KUIPER-00188            
1 67142U 25301K   26015.09869833  .00015616  00000+0  45150-3 0  9997
2 67142  51.8718 324.3184 0007577 197.3030 162.7699 15.35778787  5492
KUIPER-00191            
1 67143U 25301L   26015.02986686  .00012301  00000+0  35574-3 0  9994
2 67143  51.8685 324.6046 0006666 192.6277 167.4543 15.35995698  5510
KUIPER-00196            
1 67144U 25301M   26015.01427585  .00025298  00000+0  70399-3 0  9995
2 67144  51.8739 324.5116 0003002 161.7829 198.3266 15.36663385  5486
KUIPER-00204            
1 67145U 25301N   26015.16670139  .00010004  00000+0  41954-3 0  9991
2 67145  51.8828 324.2801 0004617 124.6110  83.3926 15.24080677  5613
KUIPER-00210            
1 67146U 25301P   26015.11430891  .00017102  00000+0  50683-3 0  9991
2 67146  51.8630 324.4006 0010469 217.8219 142.2032 15.34903996  5668
KUIPER-00221            
1 67147U 25301Q   26015.16670139  .00010142  00000+0  33187-3 0  9995
2 67147  51.8733 323.9136 0004904 156.4144 263.8921 15.32276443  4993
KUIPER-00232            
1 67148U 25301R   26015.06657674  .00018582  00000+0  51159-3 0  9999
2 67148  51.8740 324.1136 0002600 115.0314 245.0943 15.37195210  5495
KUIPER-00241            
1 67149U 25301S   26015.07489465  .00018871  00000+0  52443-3 0  9990
2 67149  51.8747 324.1678 0003123 151.5777 208.5381 15.36892421  5827
KUIPER-00245            
1 67150U 25301T   26015.16670139 -.00001716  00000+0 -62050-4 0  9990
2 67150  51.8793 324.3930 0008201 187.9535 320.5968 15.20770802  4994
KUIPER-00246            
1 67151U 25301U   26015.01530014  .00019161  00000+0  53686-3 0  9997
2 67151  51.8746 324.5184 0004067 166.8367 193.2726 15.36623850  5503
KUIPER-00247            
1 67152U 25301V   26015.11879353  .00014346  00000+0  43164-3 0  9991
2 67152  51.8663 324.4361 0011173 218.9416 141.0765 15.34563054  5497
KUIPER-00248            
1 67153U 25301W   26015.10446512  .00016361  00000+0  47820-3 0  9990
2 67153  51.8708 324.3530 0008305 202.3968 157.6656 15.35394862  5668
KUIPER-00249            
1 67154U 25301X   26015.03508546  .00022512  00000+0  64572-3 0  9997
2 67154  51.8678 324.6349 0008363 200.6614 159.4035 15.35760507  5483
KUIPER-00250            
1 67155U 25301Y   26015.02520647  .00014582  00000+0  41614-3 0  9993
2 67155  51.8724 324.5811 0006592 187.7499 172.3386 15.36253077  5514
KUIPER-00251            
1 67156U 25301Z   26015.10388811  .00014460  00000+0  42365-3 0  9997
2 67156  51.8686 324.3470 0008942 200.0333 160.0303 15.35416869  5688
